392P/LINEAR,e,4.9319,24.8860,71.8698,6.140591,0.0647722,0.68326016,69.3602,03/08.0/2023,2000,g 14.5,4.0
# From MPEC 2021-BE3
393P/Spacewatch-Hill,e,16.7876,36.3920,328.8814,4.793144,0.0939233,0.12050892,115.0115,03/08.0/2023,2000,g 11.0,4.0
# From MPEC 2020-KB7
394P/PANSTARRS,e,8.5297,98.1264,54.4463,4.329998,0.1093887,0.36744855,130.6680,03/08.0/2023,2000,g 16.0,2.4
# From MPEC 2023-C45
395P/Catalina-NEAT,e,3.3419,222.3546,92.1777,6.751349,0.0561847,0.39686718,23.8092,03/08.0/2023,2000,g 10.0,4.0
# From MPEC 2020-KB7
396P/,e,5.4371,136.6485,8.3928,6.805349,0.0555173,0.41582750,71.5374,03/08.0/2023,2000,g 12.0,4.0
# From MPEC 2022-OB6
397P/Lemmon,e,10.9293,8.1952,14.5328,3.830151,0.1314862,0.40528282,130.3163,03/08.0/2023,2000,g 12.0,4.0
# From MPEC 2021-L04
398P/Boattini,e,11.0174,127.4369,320.2057,3.126488,0.1782867,0.58312015,142.8114,03/08.0/2023,2000,g 15.5,4.0
# From MPEC 2022-M88
399P/PANSTARRS,e,13.3217,207.1310,214.3530,3.792129,0.1334687,0.44730897,87.3108,03/08.0/2023,2000,g 14.0,4.0
# From MPEC 2022-ED3
400P/PANSTARRS,e,10.9300,176.3909,238.8308,3.561639,0.1466322,0.40959293,110.7906,03/08.0/2023,2000,g 15.5,2.8
# From MPEC 2022-K19
401P/McNaught,e,12.8026,359.8827,309.4349,5.777188,0.0709789,0.57943037,84.2793,03/08.0/2023,2000,g 12.5,4.0
# From MPEC 2023-E49
402P/LINEAR,e,30.8426,123.0901,326.7636,7.026032,0.0529223,0.43950241,23.7191,03/08.0/2023,2000,g  8.0,4.0
# From MPEC 2021-J28
403P/Catalina,e,12.3208,163.8086,277.6399,5.428775,0.0779204,0.50396500,70.3121,03/08.0/2023,2000,g 12.0,4.0
# From MPEC 2023-D41
404P/Bressi,e,9.7683,260.1195,168.9284,4.752142,0.0951415,0.13025462,337.3482,03/08.0/2023,2000,g 10.0,4.0
# From MPEC 2021-L04
405P/Lemmon,e,9.3656,3.3089,112.1880,3.605916,0.1439397,0.68937102,115.6764,03/08.0/2023,2000,g 17.5,4.0
# From MPEC 2021-F20
406P/Gibbs,e,1.2129,11.4944,352.4301,3.577091,0.1456831,0.54196899,131.5599,03/08.0/2023,2000,g 17.0,4.0
# From MPEC 2022-YN2
407P/PANSTARRS-Fuls,e,4.8739,80.3657,93.5522,3.477707,0.1519723,0.37948743,172.3970,03/08.0/2023,2000,g 14.0,4.0
# From MPEC 2023-E49
408P/Novichonok-Gerke,e,19.3569,189.4416,226.4897,4.742537,0.0954307,0.26882497,14.6738,03/08.0/2023,2000,g 11.0,4.0
# From MPEC 2022-ED3
409P/LONEOS-Hill,e,17.1222,143.6630,15.0895,6.037922,0.0664313,0.70963646,51.0866,03/08.0/2023,2000,g 14.0,4.0
# From MPEC 2022-M21
410P/NEAT-LINEAR,e,9.3919,139.9742,313.1095,6.642188,0.0575755,0.51122897,35.8264,03/08.0/2023,2000,g 12.5,4.0
# From MPEC 2021-J28
411P/Christensen,e,12.3835,77.6530,46.5959,5.812757,0.0703284,0.58093071,54.3395,03/08.0/2023,2000,g 13.5,4.0
# From MPEC 2021-F20
412P/WISE,e,8.9314,0.8445,155.9379,3.110164,0.1796922,0.47909061,147.9174,03/08.0/2023,2000,g 17.0,4.0
# From MPEC 2022-OB6
413P/Larson,e,15.9871,38.9567,186.4363,3.719376,0.1374039,0.42293845,81.7953,03/08.0/2023,2000,g 14.0,4.0
# From MPEC 2021-BE3
414P/STEREO,e,23.3969,257.8011,210.6974,2.793355,0.2111129,0.81179520,162.9075,03/08.0/2023,2000,g 19.0,4.0
# From MPEC 2022-J42
415P/Tenagra,e,31.7920,160.2881,346.0069,4.112037,0.1182003,0.19471009,88.9051,03/08.0/2023,2000,g 12.0,4.0
# From MPEC 2021-L04
416P/Scotti,e,3.3612,355.7998,134.4189,4.009657,0.1227561,0.45445266,92.1494,03/08.0/2023,2000,g 15.5,4.0
# From MPEC 2021-W31
417P/NEOWISE,e,8.1297,110.6916,129.7360,3.340212,0.1614518,0.55824358,110.3386,03/08.0/2023,2000,g 16.5,4.0
# From MPEC 2022-TA0
418P/LINEAR,e,5.7879,277.4994,307.4410,5.093330,0.0857435,0.66479047,43.4169,03/08.0/2023,2000,g 13.0,4.0
# From MPEC 2022-ST7
419P/PANSTARRS,e,2.8030,40.3875,187.6238,3.521956,0.1491174,0.27741281,73.9936,03/08.0/2023,2000,g 12.5,4.0
# From MPEC 2022-OB6
420P/Hill,e,14.4984,173.9361,156.8825,5.534419,0.0757000,0.49664038,21.9739,03/08.0/2023,2000,g 11.5,4.0
# From MPEC 2021-W31
421P/McNaught,e,10.0769,55.3386,259.8783,5.076386,0.0861732,0.67519400,66.4726,03/08.0/2023,2000,g 14.0,4.0
# From MPEC 2022-X67
422P/Christensen,e,39.5822,36.0261,305.0111,6.301367,0.0623092,0.50749210,26.1060,03/08.0/2023,2000,g 11.0,4.0
# From MPEC 2023-A50
423P/Lemmon,e,8.3463,33.2958,80.3217,6.170760,0.0642978,0.12173098,34.4116,03/08.0/2023,2000,g  8.0,4.0
# From MPEC 2022-CN4
424P/LaSagra,e,8.6849,51.1661,312.5280,4.416802,0.1061799,0.69126305,52.2782,03/08.0/2023,2000,g 17.0,4.0
# From MPEC 2023-BF4
425P/Kowalski,e,16.4207,210.0757,200.8168,6.338590,0.0617611,0.54389972,32.9354,03/08.0/2023,2000,g 12.0,4.0
# From MPEC 2022-P82
426P/PANSTARRS,e,17.7650,280.4902,118.8944,3.189170,0.1730564,0.16169604,327.3039,03/08.0/2023,2000,g 13.5,4.0
# From MPEC 2022-J42
428P/Gibbs,e,8.5115,299.3405,36.8651,3.485768,0.1514455,0.51925889,100.3168,03/08.0/2023,2000,g 15.0,4.0
# From MPEC 2022-H04
429P/LINEAR-Hill,e,7.5204,322.0737,75.5821,3.552599,0.1471922,0.49142184,63.2584,03/08.0/2023,2000,g 15.5,4.0
# From MPEC 2022-L66
430P/Scotti,e,4.4753,54.6736,94.4561,3.105321,0.1801127,0.49956540,83.0021,03/08.0/2023,2000,g 16.5,4.0
# From MPEC 2023-D72
431P/Scotti,e,22.3925,202.8423,199.9019,3.474003,0.1522154,0.47779500,58.9907,03/08.0/2023,2000,g 14.0,4.0
# From MPEC 2021-U31
432P/PANSTARRS,e,10.0687,239.1397,105.2732,3.035725,0.1863419,0.24180185,103.3559,03/08.0/2023,2000,g 17.0,4.0
# From MPEC 2022-OB6
434P/Tenagra,e,6.3377,288.9629,128.1522,4.130802,0.1173958,0.27466801,58.4291,03/08.0/2023,2000,g 13.0,4.0
# From MPEC 2021-W31
435P/PANSTARRS,e,18.8792,98.5489,244.2024,3.019144,0.1878790,0.31850760,110.5721,03/08.0/2023,2000,g 17.0,4.0
# From MPEC 2022-X67
436P/Garradd,e,20.2068,87.1861,282.6337,5.931365,0.0682295,0.66981631,31.0080,03/08.0/2023,2000,g 14.5,4.0
# From MPEC 2023-B57
437P/Lemmon-PANSTARRS,e,3.6889,245.8605,206.7613,4.561670,0.1011622,0.25460058,20.3671,03/08.0/2023,2000,g 13.0,4.0
# From MPEC 2021-W47
438P/Christensen,e,8.2838,260.1396,59.0135,3.848831,0.1305302,0.41528000,139.2649,03/08.0/2023,2000,g 14.5,4.0
# From MPEC 2022-C56
439P/LINEAR,e,7.1144,56.4039,342.0574,3.489438,0.1512066,0.46961403,84.4887,03/08.0/2023,2000,g 13.5,4.0
# From MPEC 2022-WQ9
440P/Kobayashi,e,12.3389,328.8736,183.3006,8.580897,0.0392107,0.76042707,13.4529,03/08.0/2023,2000,g 15.5,4.0
# From MPEC 2022-X67
441P/PANSTARRS,e,2.5745,143.6148,178.8043,4.134489,0.1172388,0.19538662,252.6351,03/08.0/2023,2000,g 13.5,4.0
# From MPEC 2022-YN2
442P/McNaught,e,6.0590,32.0155,310.9069,4.976617,0.0887775,0.53344249,17.8492,03/08.0/2023,2000,g 13.5,4.0
# From MPEC 2022-OB6
443P/PANSTARRS-Christensen,e,19.8877,108.9430,145.1110,4.126877,0.1175633,0.28367493,17.4997,03/08.0/2023,2000,g 13.5,4.0
# From MPEC 2022-YN2
444P/WISE-PANSTARRS,e,22.1237,89.3850,170.9460,3.429741,0.1551715,0.57040309,37.3288,03/08.0/2023,2000,g 17.0,4.0
# From MPEC 2022-YB4
445P/Lemmon-PANSTARRS,e,1.0886,126.5831,213.6405,4.060165,0.1204727,0.41444456,24.3844,03/08.0/2023,2000,g 15.0,4.0
# From MPEC 2022-WQ9
446P/McNaught,e,16.6132,336.4006,344.7172,4.570897,0.1008560,0.64703707,28.4846,03/08.0/2023,2000,g 16.5,4.0
# From MPEC 2022-YB4
447P/Sheppard-Tholen,e,7.4340,302.6665,97.6924,5.640231,0.0735798,0.17964734,14.7738,03/08.0/2023,2000,g 12.0,4.0
# From MPEC 2023-A50
448P/PANSTARRS,e,12.1515,161.7541,218.7248,3.634563,0.1422413,0.41890350,25.9536,03/08.0/2023,2000,g 16.0,4.0
# From MPEC 2022-UE6
449P/Leonard,e,15.4657,242.5308,176.6910,3.600170,0.1442845,0.47964116,120.3390,03/08.0/2023,2000,g 16.0,4.0
# From MPEC 2022-TA6
450P/LONEOS,e,10.5518,124.8547,21.1035,7.972945,0.0437800,0.31056085,298.2157,03/08.0/2023,2000,g  6.5,4.0
# From MPEC 2023-E49
451P/Christensen,e,26.4820,300.9115,186.6953,6.338988,0.0617553,0.55852216,6.2047,03/08.0/2023,2000,g 13.5,4.0
# From MPEC 2023-E49
452P/Sheppard-Jewitt,e,6.4224,123.6990,37.0512,7.295009,0.0500225,0.42725548,357.5656,03/08.0/2023,2000,g  9.0,4.0
# From MPEC 2023-E49
453P/WISE-Lemmon,e,27.0678,42.8973,70.8256,5.457348,0.0773093,0.58249286,0.3850,03/08.0/2023,2000,g 14.0,4.0
# From MPEC 2023-CD7
454P/PANSTARRS,e,19.8124,54.5875,20.0021,4.205507,0.1142816,0.36136288,25.7106,03/08.0/2023,2000,g 14.0,4.0
# From MPEC 2022-Y14
455P/PANSTARRS,e,14.1375,146.2037,237.5627,3.155182,0.1758602,0.30536783,1.8541,03/08.0/2023,2000,g 17.0,4.0
# From MPEC 2023-BD5
456P/PANSTARRS,e,16.9595,243.2048,234.4005,3.166427,0.1749241,0.11821896,224.4863,03/08.0/2023,2000,g 13.5,4.0
# From MPC107687
1I/`Oumuamua,h,09/09.4886/2017,122.6778,24.5997,241.6845,1.199252,0.255240,2000,23.0,2.0
# From MPEC 2020-K19
2I/Borisov,h,12/08.5549/2019,44.0527,308.1480,209.1251,3.356636,2.006548,2000,11.0,4.0
